{
  "links" : {
    "next" : "https://api.nasa.gov/neo/rest/v1/feed?start_date=2006-05-09&end_date=2006-05-09&detailed=true&api_key=t0TVs3DtDT2H8Oy2Zy8m2eVrNsAVKAexjcZXUckd",
    "prev" : "https://api.nasa.gov/neo/rest/v1/feed?start_date=2006-05-07&end_date=2006-05-07&detailed=true&api_key=t0TVs3DtDT2H8Oy2Zy8m2eVrNsAVKAexjcZXUckd",
    "self" : "https://api.nasa.gov/neo/rest/v1/feed?start_date=2006-05-08&end_date=2006-05-08&detailed=true&api_key=t0TVs3DtDT2H8Oy2Zy8m2eVrNsAVKAexjcZXUckd"
  },
  "element_count" : 2,
  "near_earth_objects" : {
    "2006-05-08" : [ {
      "links" : {
        "self" : "https://api.nasa.gov/neo/rest/v1/neo/3182170?api_key=t0TVs3DtDT2H8Oy2Zy8m2eVrNsAVKAexjcZXUckd"
      },
      "neo_reference_id" : "3182170",
      "name" : "(2004 JO1)",
      "nasa_jpl_url" : "http://ssd.jpl.nasa.gov/sbdb.cgi?sstr=3182170",
      "absolute_magnitude_h" : 20.9,
      "estimated_diameter" : {
        "kilometers" : {
          "estimated_diameter_min" : 0.1756123185,
          "estimated_diameter_max" : 0.3926810818
        },
        "meters" : {
          "estimated_diameter_min" : 175.6123184804,
          "estimated_diameter_max" : 392.6810818086
        },
        "miles" : {
          "estimated_diameter_min" : 0.1091204019,
          "estimated_diameter_max" : 0.2440006365
        },
        "feet" : {
          "estimated_diameter_min" : 576.1559189633,
          "estimated_diameter_max" : 1288.3238004408
        }
      },
      "is_potentially_hazardous_asteroid" : false,
      "close_approach_data" : [ {
        "close_approach_date" : "2006-05-08",
        "epoch_date_close_approach" : 1147071600000,
        "relative_velocity" : {
          "kilometers_per_second" : "12.0635518114",
          "kilometers_per_hour" : "43428.786521112",
          "miles_per_hour" : "26984.9590469654"
        },
        "miss_distance" : {
          "astronomical" : "0.4982900572",
          "lunar" : "193.8348388672",
          "kilometers" : "74543136",
          "miles" : "46318956"
        },
        "orbiting_body" : "Earth"
      } ],
      "orbital_data" : {
        "orbit_id" : "19",
        "orbit_determination_date" : "2017-04-06 09:12:48",
        "orbit_uncertainty" : "8",
        "minimum_orbit_intersection" : ".0586928",
        "jupiter_tisserand_invariant" : "5.814",
        "epoch_osculation" : "2453141.5",
        "eccentricity" : ".4752860408892255",
        "semi_major_axis" : "1.022571042831115",
        "inclination" : "21.5950466837971",
        "ascending_node_longitude" : "69.82698219377333",
        "orbital_period" : "377.6927619837551",
        "perihelion_distance" : ".5365573003559481",
        "perihelion_argument" : "286.224107715515",
        "aphelion_distance" : "1.508584785306283",
        "perihelion_time" : "2453216.378051563770",
        "mean_anomaly" : "288.6295601181878",
        "mean_motion" : ".9531556763470197",
        "equinox" : "J2000"
      }
    }, {
      "links" : {
        "self" : "https://api.nasa.gov/neo/rest/v1/neo/3638286?api_key=t0TVs3DtDT2H8Oy2Zy8m2eVrNsAVKAexjcZXUckd"
      },
      "neo_reference_id" : "3638286",
      "name" : "(2013 JK14)",
      "nasa_jpl_url" : "http://ssd.jpl.nasa.gov/sbdb.cgi?sstr=3638286",
      "absolute_magnitude_h" : 24.9,
      "estimated_diameter" : {
        "kilometers" : {
          "estimated_diameter_min" : 0.0278326768,
          "estimated_diameter_max" : 0.0622357573
        },
        "meters" : {
          "estimated_diameter_min" : 27.8326768072,
          "estimated_diameter_max" : 62.2357573367
        },
        "miles" : {
          "estimated_diameter_min" : 0.0172944182,
          "estimated_diameter_max" : 0.0386714948
        },
        "feet" : {
          "estimated_diameter_min" : 91.3145593761,
          "estimated_diameter_max" : 204.1855621004
        }
      },
      "is_potentially_hazardous_asteroid" : false,
      "close_approach_data" : [ {
        "close_approach_date" : "2006-05-08",
        "epoch_date_close_approach" : 1147071600000,
        "relative_velocity" : {
          "kilometers_per_second" : "25.8147935859",
          "kilometers_per_hour" : "92933.2569092263",
          "miles_per_hour" : "57745.1117722912"
        },
        "miss_distance" : {
          "astronomical" : "0.3807575874",
          "lunar" : "148.1147003174",
          "kilometers" : "56960528",
          "miles" : "35393632"
        },
        "orbiting_body" : "Earth"
      } ],
      "orbital_data" : {
        "orbit_id" : "7",
        "orbit_determination_date" : "2017-04-06 08:45:55",
        "orbit_uncertainty" : "7",
        "minimum_orbit_intersection" : ".00757691",
        "jupiter_tisserand_invariant" : "6.388",
        "epoch_osculation" : "2458000.5",
        "eccentricity" : ".4643832578435985",
        "semi_major_axis" : ".9217344007415763",
        "inclination" : "4.873367484614554",
        "ascending_node_longitude" : "55.74071437400801",
        "orbital_period" : "323.226620523982",
        "perihelion_distance" : ".4936963768586862",
        "perihelion_argument" : "313.0164204914738",
        "aphelion_distance" : "1.349772424624466",
        "perihelion_time" : "2458122.836811967918",
        "mean_anomaly" : "223.7449717567965",
        "mean_motion" : "1.11376964996387",
        "equinox" : "J2000"
      }
    } ]
  }
}